OBJECT_NAME,OBJECT_ID,EPOCH,MEAN_MOTION,ECCENTRICITY,INCLINATION,RA_OF_ASC_NODE,ARG_OF_PERICENTER,MEAN_ANOMALY,EPHEMERIS_TYPE,CLASSIFICATION_TYPE,NORAD_CAT_ID,ELEMENT_SET_NO,REV_AT_EPOCH,BSTAR,MEAN_MOTION_DOT,MEAN_MOTION_DDOT
ONEWEB-0309,2021-075W,2026-07-22T20:31:08.690880,13.17647613,.00023176,87.9153,358.7679,89.7734,270.3663,0,U,49095,999,23827,-.973571E-6,.13E-6,0
ONEWEB-0310,2021-075X,2026-07-22T20:07:15.254400,13.12443661,.00018799,87.8972,343.5915,97.9589,262.1753,0,U,49096,999,23986,.11824674E-2,.438E-5,0
ONEWEB-0311,2021-075Y,2026-07-22T20:40:52.612320,13.17648046,.00015625,87.9152,358.7667,82.1904,277.9405,0,U,49097,999,23832,.63210668E-4,.37E-6,0
ONEWEB-0312,2021-075Z,2026-07-22T21:02:45.051648,13.17648933,.00018679,87.9153,358.7739,85.3214,274.8131,0,U,49098,999,23830,.26251726E-3,.115E-5,0
ONEWEB-0313,2021-075AA,2026-07-22T10:13:44.286528,13.17647787,.00017957,87.9150,358.8682,90.9066,269.2271,0,U,49099,999,23823,.6200478E-4,.37E-6,0
ONEWEB-0314,2021-075AB,2026-07-22T20:21:25.274016,13.17647808,.00019458,87.9166,358.7609,82.2688,277.8664,0,U,49100,999,23826,.10400218E-3,.53E-6,0
ONEWEB-0315,2021-075AC,2026-07-22T19:28:13.132704,13.12443715,.00014735,87.8980,343.5636,90.6208,269.5089,0,U,49101,999,23984,-.75056101E-3,-.257E-5,0
ONEWEB-0316,2021-075AD,2026-07-22T19:42:06.096096,13.18687334,.00019685,87.9198,328.3716,98.8846,261.2509,0,U,49102,999,24190,.1688774E-3,.79E-6,0
ONEWEB-0317,2021-075AE,2026-07-22T19:33:06.036480,13.12443936,.00025262,87.8977,343.5861,102.7956,257.3455,0,U,49103,999,23986,-.59764908E-3,-.202E-5,0
ONEWEB-0318,2021-075AF,2026-07-22T17:47:47.047200,13.18686876,.00017779,87.9204,328.3891,95.9976,264.1358,0,U,49104,999,24185,.70725827E-4,.41E-6,0
ONEWEB-0319,2021-075AG,2026-07-22T20:43:18.375168,13.17647937,.0001361,87.9151,358.7714,86.3667,273.7620,0,U,49105,999,23830,.10050187E-3,.52E-6,0
ONEWEB-0323,2021-075AH,2026-07-22T15:26:41.845632,13.12442889,.0001477,87.8980,343.6022,83.3255,276.8042,0,U,49106,999,23920,-.93307451E-3,-.323E-5,0
ONEWEB-0329,2021-075AJ,2026-07-22T20:55:26.640768,13.17647434,.00018611,87.9151,358.7713,86.4147,273.7197,0,U,49107,999,23828,.29350057E-3,.127E-5,0
ONEWEB-0330,2021-075AK,2026-07-21T08:33:32.280768,13.17647272,.00019534,87.9155,359.0832,88.9530,271.1825,0,U,49108,999,23812,.21839664E-3,.98E-6,0
ONEWEB-0292,2021-083A,2026-07-22T17:46:18.460416,13.13470958,.00018047,87.8978,313.1635,99.2536,260.8797,0,U,49186,999,23559,.3052924E-3,.124E-5,0
ONEWEB-0303,2021-083B,2026-07-22T14:04:24.403584,13.18685451,.00017564,87.9200,328.4184,95.6068,264.5264,0,U,49187,999,23464,.62581617E-4,.38E-6,0
ONEWEB-0306,2021-083C,2026-07-22T13:49:50.774304,13.18686128,.00021454,87.9205,328.4098,99.8317,260.3058,0,U,49188,999,23468,.82169824E-4,.45E-6,0
ONEWEB-0307,2021-083D,2026-07-22T17:37:46.527456,13.13469217,.00018895,87.8981,313.1626,96.7441,263.3903,0,U,49189,999,23559,-.86458009E-4,-.19E-6,0
ONEWEB-0320,2021-083E,2026-07-22T14:18:57.691584,13.18685310,.00019768,87.9193,328.4203,99.2892,260.8464,0,U,49190,999,23464,.24173654E-3,.108E-5,0
ONEWEB-0321,2021-083F,2026-07-22T21:10:47.182656,13.20770878,.00021767,87.9178,267.3217,102.4136,257.7242,0,U,49191,999,24154,-.49240119E-4,-.7E-7,0
ONEWEB-0322,2021-083G,2026-07-22T17:31:41.160000,13.13470857,.00021805,87.8978,313.1631,111.0153,249.1209,0,U,49192,999,23558,-.57773413E-3,-.198E-5,0
ONEWEB-0324,2021-083H,2026-07-22T19:07:54.834816,13.18687344,.00020087,87.9205,328.3714,95.2585,264.8776,0,U,49193,999,23469,-.57214694E-4,-.1E-6,0
ONEWEB-0325,2021-083J,2026-07-22T19:12:45.101664,13.18687720,.00018203,87.9196,328.3757,100.6795,259.4542,0,U,49194,999,23470,-.97550679E-4,-.26E-6,0
ONEWEB-0326,2021-083K,2026-07-22T17:45:34.546752,13.18686875,.0001624,87.9204,328.3882,95.6119,264.5198,0,U,49195,999,23468,.30641172E-4,.25E-6,0
ONEWEB-0327,2021-083L,2026-07-22T19:34:26.194080,13.18686460,.00014973,87.9194,328.3747,101.3455,258.7846,0,U,49196,999,23471,-.1435608E-3,-.44E-6,0
ONEWEB-0328,2021-083M,2026-07-22T17:17:03.567552,13.13470308,.00020233,87.8991,313.1415,96.6799,263.4561,0,U,49197,999,23556,-.84959646E-3,-.297E-5,0
ONEWEB-0331,2021-083N,2026-07-22T19:24:54.859392,13.18686352,.00016218,87.9204,328.3685,92.3916,267.7402,0,U,49198,999,23470,.32420015E-4,.26E-6,0
ONEWEB-0333,2021-083P,2026-07-22T17:09:44.769600,13.13469758,.00019201,87.8981,313.1655,101.1642,258.9703,0,U,49199,999,23557,-.86788371E-3,-.304E-5,0
ONEWEB-0334,2021-083Q,2026-07-22T14:15:01.997568,13.20769724,.00026424,87.9176,267.3892,111.6341,248.5074,0,U,49200,999,24146,.91596225E-4,.5E-6,0
ONEWEB-0335,2021-083R,2026-07-22T07:53:57.430752,13.13469494,.00018194,87.8980,313.2393,96.6593,263.4744,0,U,49201,999,23553,-.64641635E-3,-.223E-5,0
