{"epoch":1784799577,"count":18318,"objects":[{"id":"49095","name":"ONEWEB-0309","type":"PAYLOAD","l1":"1 49095U 21075W   26203.85496170  .00000013  00000-0 -97357-6 0  9997","l2":"2 49095  87.9153 358.7679 0002318  89.7734 270.3663 13.17647613238277"},{"id":"49096","name":"ONEWEB-0310","type":"PAYLOAD","l1":"1 49096U 21075X   26203.83837100  .00000438  00000-0  11825-2 0  9990","l2":"2 49096  87.8972 343.5915 0001880  97.9589 262.1753 13.12443661239860"},{"id":"49097","name":"ONEWEB-0311","type":"PAYLOAD","l1":"1 49097U 21075Y   26203.86172005  .00000037  00000-0  63211-4 0  9993","l2":"2 49097  87.9152 358.7667 0001563  82.1904 277.9405 13.17648046238326"},{"id":"49098","name":"ONEWEB-0312","type":"PAYLOAD","l1":"1 49098U 21075Z   26203.87691032  .00000115  00000-0  26252-3 0  9991","l2":"2 49098  87.9153 358.7739 0001868  85.3214 274.8131 13.17648933238300"},{"id":"49099","name":"ONEWEB-0313","type":"PAYLOAD","l1":"1 49099U 21075AA  26203.42620702  .00000037  00000-0  62005-4 0  9999","l2":"2 49099  87.9150 358.8682 0001796  90.9066 269.2271 13.17647787238234"},{"id":"49100","name":"ONEWEB-0314","type":"PAYLOAD","l1":"1 49100U 21075AB  26203.84820919  .00000053  00000-0  10400-3 0  9999","l2":"2 49100  87.9166 358.7609 0001946  82.2688 277.8664 13.17647808238261"},{"id":"49101","name":"ONEWEB-0315","type":"PAYLOAD","l1":"1 49101U 21075AC  26203.81126311 -.00000257  00000-0 -75056-3 0  9998","l2":"2 49101  87.8980 343.5636 0001473  90.6208 269.5089 13.12443715239843"},{"id":"49102","name":"ONEWEB-0316","type":"PAYLOAD","l1":"1 49102U 21075AD  26203.82090389  .00000079  00000-0  16888-3 0  9993","l2":"2 49102  87.9198 328.3716 0001968  98.8846 261.2509 13.18687334241902"},{"id":"49103","name":"ONEWEB-0317","type":"PAYLOAD","l1":"1 49103U 21075AE  26203.81465320 -.00000202  00000-0 -59765-3 0  9995","l2":"2 49103  87.8977 343.5861 0002526 102.7956 257.3455 13.12443936239865"},{"id":"49104","name":"ONEWEB-0318","type":"PAYLOAD","l1":"1 49104U 21075AF  26203.74151675  .00000041  00000-0  70726-4 0  9993","l2":"2 49104  87.9204 328.3891 0001778  95.9976 264.1358 13.18686876241855"},{"id":"49105","name":"ONEWEB-0319","type":"PAYLOAD","l1":"1 49105U 21075AG  26203.86340712  .00000052  00000-0  10050-3 0  9994","l2":"2 49105  87.9151 358.7714 0001361  86.3667 273.7620 13.17647937238305"},{"id":"49106","name":"ONEWEB-0323","type":"PAYLOAD","l1":"1 49106U 21075AH  26203.64353988 -.00000323  00000-0 -93307-3 0  9999","l2":"2 49106  87.8980 343.6022 0001477  83.3255 276.8042 13.12442889239204"},{"id":"49107","name":"ONEWEB-0329","type":"PAYLOAD","l1":"1 49107U 21075AJ  26203.87183612  .00000127  00000-0  29350-3 0  9997","l2":"2 49107  87.9151 358.7713 0001861  86.4147 273.7197 13.17647434238283"},{"id":"49108","name":"ONEWEB-0330","type":"PAYLOAD","l1":"1 49108U 21075AK  26202.35662362  .00000098  00000-0  21840-3 0  9997","l2":"2 49108  87.9155 359.0832 0001953  88.9530 271.1825 13.17647272238122"},{"id":"49186","name":"ONEWEB-0292","type":"PAYLOAD","l1":"1 49186U 21083A   26203.74049144  .00000124  00000-0  30529-3 0  9997","l2":"2 49186  87.8978 313.1635 0001805  99.2536 260.8797 13.13470958235591"},{"id":"49187","name":"ONEWEB-0303","type":"PAYLOAD","l1":"1 49187U 21083B   26203.58639356  .00000038  00000-0  62582-4 0  9999","l2":"2 49187  87.9200 328.4184 0001756  95.6068 264.5264 13.18685451234640"},{"id":"49188","name":"ONEWEB-0306","type":"PAYLOAD","l1":"1 49188U 21083C   26203.57628211  .00000045  00000-0  82170-4 0  9990","l2":"2 49188  87.9205 328.4098 0002145  99.8317 260.3058 13.18686128234687"},{"id":"49189","name":"ONEWEB-0307","type":"PAYLOAD","l1":"1 49189U 21083D   26203.73456629 -.00000019  00000-0 -86458-4 0  9997","l2":"2 49189  87.8981 313.1626 0001889  96.7441 263.3903 13.13469217235590"},{"id":"49190","name":"ONEWEB-0320","type":"PAYLOAD","l1":"1 49190U 21083E   26203.59650106  .00000108  00000-0  24174-3 0  9992","l2":"2 49190  87.9193 328.4203 0001977  99.2892 260.8464 13.18685310234642"},{"id":"49191","name":"ONEWEB-0321","type":"PAYLOAD","l1":"1 49191U 21083F   26203.88249054 -.00000007  00000-0 -49240-4 0  9993","l2":"2 49191  87.9178 267.3217 0002177 102.4136 257.7242 13.20770878241546"},{"id":"49192","name":"ONEWEB-0322","type":"PAYLOAD","l1":"1 49192U 21083G   26203.73033750 -.00000198  00000-0 -57773-3 0  9992","l2":"2 49192  87.8978 313.1631 0002180 111.0153 249.1209 13.13470857235584"},{"id":"49193","name":"ONEWEB-0324","type":"PAYLOAD","l1":"1 49193U 21083H   26203.79716244 -.00000010  00000-0 -57215-4 0  9990","l2":"2 49193  87.9205 328.3714 0002009  95.2585 264.8776 13.18687344234691"},{"id":"49194","name":"ONEWEB-0325","type":"PAYLOAD","l1":"1 49194U 21083J   26203.80052201 -.00000026  00000-0 -97551-4 0  9993","l2":"2 49194  87.9196 328.3757 0001820 100.6795 259.4542 13.18687720234703"},{"id":"49195","name":"ONEWEB-0326","type":"PAYLOAD","l1":"1 49195U 21083K   26203.73998318  .00000025  00000-0  30641-4 0  9998","l2":"2 49195  87.9204 328.3882 0001624  95.6119 264.5198 13.18686875234689"},{"id":"49196","name":"ONEWEB-0327","type":"PAYLOAD","l1":"1 49196U 21083L   26203.81558095 -.00000044  00000-0 -14356-3 0  9999","l2":"2 49196  87.9194 328.3747 0001497 101.3455 258.7846 13.18686460234713"},{"id":"49197","name":"ONEWEB-0328","type":"PAYLOAD","l1":"1 49197U 21083M   26203.72018018 -.00000297  00000-0 -84960-3 0  9994","l2":"2 49197  87.8991 313.1415 0002023  96.6799 263.4561 13.13470308235563"},{"id":"49198","name":"ONEWEB-0331","type":"PAYLOAD","l1":"1 49198U 21083N   26203.80896828  .00000026  00000-0  32420-4 0  9990","l2":"2 49198  87.9204 328.3685 0001622  92.3916 267.7402 13.18686352234706"},{"id":"49199","name":"ONEWEB-0333","type":"PAYLOAD","l1":"1 49199U 21083P   26203.71510150 -.00000304  00000-0 -86788-3 0  9998","l2":"2 49199  87.8981 313.1655 0001920 101.1642 258.9703 13.13469758235579"},{"id":"49200","name":"ONEWEB-0334","type":"PAYLOAD","l1":"1 49200U 21083Q   26203.59377312  .00000050  00000-0  91596-4 0  9998","l2":"2 49200  87.9176 267.3892 0002642 111.6341 248.5074 13.20769724241461"},{"id":"49201","name":"ONEWEB-0335","type":"PAYLOAD","l1":"1 49201U 21083R   26203.32913693 -.00000223  00000-0 -64642-3 0  9993","l2":"2 49201  87.8980 313.2393 0001819  96.6593 263.4744 13.13469494235531"}]}